OBJECT_NAME,OBJECT_ID,EPOCH,MEAN_MOTION,ECCENTRICITY,INCLINATION,RA_OF_ASC_NODE,ARG_OF_PERICENTER,MEAN_ANOMALY,EPHEMERIS_TYPE,CLASSIFICATION_TYPE,NORAD_CAT_ID,ELEMENT_SET_NO,REV_AT_EPOCH,BSTAR,MEAN_MOTION_DOT,MEAN_MOTION_DDOT
SIRION PATHFINDER-2,2018-099B,2026-06-04T02:23:38.952096,15.14427297,.00082861,97.4255,204.4687,356.1424,3.9743,0,U,43759,999,41064,.32068588E-3,.5832E-4,0
CORVUS BC4,2018-099K,2026-06-04T02:07:35.998176,15.12383762,.00094809,97.4067,198.4528,54.5460,305.6655,0,U,43767,999,41042,.27565309E-3,.4725E-4,0
M2 PATHFINDER,2020-037E,2026-06-04T01:53:38.607648,15.04613263,.00113296,97.8148,346.1625,191.8820,168.2140,0,U,45727,999,32352,.26170623E-3,.3616E-4,0
NETSAT-4,2020-068U,2026-06-03T13:50:19.818528,15.43386179,.00056992,97.8606,161.7287,30.7472,329.4107,0,U,46504,999,31367,.42675312E-3,.18989E-3,0
NETSAT-3,2020-068V,2026-06-03T13:44:11.895360,15.42183437,.00060677,97.8653,159.9578,46.7511,313.4240,0,U,46505,999,31358,.45992462E-3,.19667E-3,0
NETSAT-1,2020-068W,2026-06-04T05:22:21.074592,15.34317185,.000637,97.8744,155.1432,67.0325,293.1588,0,U,46506,999,31331,.45524167E-3,.15061E-3,0
NETSAT-2,2020-068X,2026-06-03T13:40:59.490336,15.45384645,.00051933,97.8621,161.5679,62.6477,297.5299,0,U,46507,999,31363,.51556175E-3,.24586E-3,0
GREENCUBE (IO-117),2022-080E,2026-06-01T11:09:37.753056,6.42583280,.00088692,70.1435,303.7143,293.3663,66.6064,0,U,53109,999,9105,0,-.3E-7,0
SITRO-AIS 5 (KATYS),2023-091L,2026-06-04T05:53:28.158720,15.29144382,.00125168,97.5062,219.0244,143.5421,216.6673,0,U,57176,999,16236,.52022168E-3,.14685E-3,0
SITRO-AIS 6 (CHIRKIN),2023-091AC,2026-06-04T06:14:55.555872,15.25676442,.00127302,97.5069,218.2265,146.6363,213.5679,0,U,57192,999,16231,.47898923E-3,.12159E-3,0
SITRO-AIS 8 (ANOKHIN),2023-091AD,2026-06-04T05:16:09.920064,15.31768845,.00117046,97.5058,220.5348,139.8166,220.3943,0,U,57193,999,16246,.54161067E-3,.16586E-3,0
SITRO-AIS 7 (FARTUSHNIY),2023-091AE,2026-06-04T06:15:41.258016,15.25370733,.00125622,97.5067,218.0586,147.5935,212.6077,0,U,57194,999,16230,.47789753E-3,.12019E-3,0
SITRO-AIS 10 (BURDAEV),2023-091AK,2026-06-04T05:45:38.470176,15.38097459,.00079926,97.5081,225.4777,118.0781,242.1273,0,U,57199,999,16277,.60067075E-3,.22502E-3,0
SITRO-AIS 9 (SHCHUKIN),2023-091AM,2026-06-04T06:17:50.101152,15.37627915,.00082089,97.5080,225.2404,118.1889,242.0185,0,U,57201,999,16276,.6046684E-3,.2231E-3,0
SITRO-AIS 12 (SMIRENNIY),2023-091AQ,2026-06-04T06:07:50.214720,15.37915387,.00078493,97.5094,225.6926,113.2192,246.9880,0,U,57204,999,16278,.58532045E-3,.21792E-3,0
SITRO-AIS 11 (SHEFFER),2023-091AU,2026-06-04T06:32:14.115840,15.38328724,.00077815,97.5091,225.9484,113.0378,247.1688,0,U,57208,999,16280,.61639293E-3,.23268E-3,0
SITRO-AIS 25,2024-039R,2026-06-04T07:28:03.120672,14.93437514,.01452681,95.3910,226.2447,13.9349,346.5819,0,U,59066,999,12280,.31813675E-3,.4081E-4,0
SITRO-AIS 26,2024-039S,2026-06-04T07:27:30.403584,14.93234465,.01455979,95.3909,226.1448,14.5030,346.0305,0,U,59067,999,12279,.30325723E-3,.387E-4,0
SITRO-AIS 27,2024-039T,2026-06-04T06:49:51.114432,14.93654273,.01446232,95.3915,226.3925,13.3170,347.1808,0,U,59068,999,12281,.3537972E-3,.4561E-4,0
SITRO-AIS 28,2024-039U,2026-06-04T06:17:47.321664,14.93686157,.0144441,95.3912,226.4237,13.1696,347.3236,0,U,59071,999,12281,.3380398E-3,.4358E-4,0
GRBBETA,2024-128C,2026-06-03T21:06:39.763296,15.06538097,.0042441,61.9905,262.9523,131.9230,228.5494,0,U,60237,999,10426,.33246E-3,.4824E-4,0
OOV-CUBE (TUBSAT-30),2024-128F,2026-06-03T21:07:55.384032,15.02709877,.0046281,61.9958,271.9701,130.8013,229.7107,0,U,60240,999,10411,.23717E-3,.3041E-4,0
ROBUSTA-3A (MEDITERRANEE),2024-128J,2026-06-03T20:07:33.042432,15.11490826,.00432203,61.9869,255.4438,125.2822,235.2328,0,U,60243,999,10440,.55287341E-3,.9406E-4,0
LASARSAT,2024-247Q,2026-06-03T22:10:16.072896,15.45494859,.00080478,44.9754,336.7002,258.6055,101.3931,0,U,62391,999,8126,.75515127E-3,.36882E-3,0
CROCUBE,2024-247T,2026-05-30T23:58:07.998816,15.46917883,.00073418,44.9730,356.3242,240.2660,119.7500,0,U,62394,999,8068,.86080924E-3,.44257E-3,0
FORESAIL-1 PRIME,2025-276DS,2026-06-03T21:13:29.893728,15.18574549,.0003556,97.4202,228.3996,131.6607,228.4932,0,U,66778,999,2838,.29269E-3,.5984E-4,0
KNACKSAT-2,1998-067XZ,2026-06-02T19:15:48.445056,15.58609395,.0010958,51.6300,6.7601,153.2067,206.9494,0,U,67683,999,1803,.58253104E-3,.45408E-3,0
