SIRION PATHFINDER-2     
1 43759U 18099B   26155.09975639  .00005832  00000+0  32069-3 0  9992
2 43759  97.4255 204.4687 0008286 356.1424   3.9743 15.14427297410645
CORVUS BC4              
1 43767U 18099K   26155.08861109  .00004725  00000+0  27565-3 0  9991
2 43767  97.4067 198.4528 0009480  54.5460 305.6655 15.12383762410423
M2 PATHFINDER           
1 45727U 20037E   26155.07891907  .00003616  00000+0  26171-3 0  9992
2 45727  97.8148 346.1625 0011329 191.8820 168.2140 15.04613263323524
NETSAT-4                
1 46504U 20068U   26154.57661827  .00018989  00000+0  42675-3 0  9996
2 46504  97.8606 161.7287 0005699  30.7472 329.4107 15.43386179313674
NETSAT-3                
1 46505U 20068V   26154.57235990  .00019667  00000+0  45992-3 0  9994
2 46505  97.8653 159.9578 0006067  46.7511 313.4240 15.42183437313582
NETSAT-1                
1 46506U 20068W   26155.22385503  .00015061  00000+0  45524-3 0  9999
2 46506  97.8744 155.1432 0006370  67.0325 293.1588 15.34317185313317
NETSAT-2                
1 46507U 20068X   26154.57013299  .00024586  00000+0  51556-3 0  9991
2 46507  97.8621 161.5679 0005193  62.6477 297.5299 15.45384645313636
GREENCUBE (IO-117)      
1 53109U 22080E   26152.46502029 -.00000003  00000+0  00000+0 0  9996
2 53109  70.1435 303.7143 0008869 293.3663  66.6064  6.42583280 91055
SITRO-AIS 5 (KATYS)     
1 57176U 23091L   26155.24546480  .00014685  00000+0  52022-3 0  9990
2 57176  97.5062 219.0244 0012516 143.5421 216.6673 15.29144382162362
SITRO-AIS 6 (CHIRKIN)   
1 57192U 23091AC  26155.26036523  .00012159  00000+0  47899-3 0  9992
2 57192  97.5069 218.2265 0012730 146.6363 213.5679 15.25676442162318
SITRO-AIS 8 (ANOKHIN)   
1 57193U 23091AD  26155.21955926  .00016586  00000+0  54161-3 0  9993
2 57193  97.5058 220.5348 0011704 139.8166 220.3943 15.31768845162462
SITRO-AIS 7 (FARTUSHNIY)
1 57194U 23091AE  26155.26089419  .00012019  00000+0  47790-3 0  9991
2 57194  97.5067 218.0586 0012562 147.5935 212.6077 15.25370733162305
SITRO-AIS 10 (BURDAEV)  
1 57199U 23091AK  26155.24002859  .00022502  00000+0  60067-3 0  9997
2 57199  97.5081 225.4777 0007992 118.0781 242.1273 15.38097459162775
SITRO-AIS 9 (SHCHUKIN)  
1 57201U 23091AM  26155.26238543  .00022310  00000+0  60467-3 0  9995
2 57201  97.5080 225.2404 0008208 118.1889 242.0185 15.37627915162769
SITRO-AIS 12 (SMIRENNIY)
1 57204U 23091AQ  26155.25544230  .00021792  00000+0  58532-3 0  9993
2 57204  97.5094 225.6926 0007849 113.2192 246.9880 15.37915387162783
SITRO-AIS 11 (SHEFFER)  
1 57208U 23091AU  26155.27238560  .00023268  00000+0  61639-3 0  9997
2 57208  97.5091 225.9484 0007781 113.0378 247.1688 15.38328724162801
SITRO-AIS 25            
1 59066U 24039R   26155.31114723  .00004081  00000+0  31814-3 0  9997
2 59066  95.3910 226.2447 0145268  13.9349 346.5819 14.93437514122807
SITRO-AIS 26            
1 59067U 24039S   26155.31076856  .00003870  00000+0  30326-3 0  9994
2 59067  95.3909 226.1448 0145597  14.5030 346.0305 14.93234465122798
SITRO-AIS 27            
1 59068U 24039T   26155.28461938  .00004561  00000+0  35380-3 0  9993
2 59068  95.3915 226.3925 0144623  13.3170 347.1808 14.93654273122815
SITRO-AIS 28            
1 59071U 24039U   26155.26235326  .00004358  00000+0  33804-3 0  9998
2 59071  95.3912 226.4237 0144441  13.1696 347.3236 14.93686157122815
GRBBETA                 
1 60237U 24128C   26154.87962689  .00004824  00000+0  33246-3 0  9996
2 60237  61.9905 262.9523 0042441 131.9230 228.5494 15.06538097104264
OOV-CUBE (TUBSAT-30)    
1 60240U 24128F   26154.88050213  .00003041  00000+0  23717-3 0  9994
2 60240  61.9958 271.9701 0046281 130.8013 229.7107 15.02709877104117
ROBUSTA-3A (MEDITERRAN*)
1 60243U 24128J   26154.83857688  .00009406  00000+0  55287-3 0  9991
2 60243  61.9869 255.4438 0043220 125.2822 235.2328 15.11490826104401
LASARSAT                
1 62391U 24247Q   26154.92379714  .00036882  00000+0  75515-3 0  9992
2 62391  44.9754 336.7002 0008047 258.6055 101.3931 15.45494859 81266
CROCUBE                 
1 62394U 24247T   26150.99870369  .00044257  00000+0  86081-3 0  9995
2 62394  44.9730 356.3242 0007341 240.2660 119.7500 15.46917883 80680
FORESAIL-1 PRIME        
1 66778U 25276DS  26154.88437377  .00005984  00000+0  29269-3 0  9997
2 66778  97.4202 228.3996 0003556 131.6607 228.4932 15.18574549 28382
KNACKSAT-2              
1 67683U 98067XZ  26153.80264404  .00045408  00000+0  58253-3 0  9991
2 67683  51.6300   6.7601 0010958 153.2067 206.9494 15.58609395 18031
